CCSDS_OMM_VERS = 2.0
CREATION_DATE  = 
ORIGINATOR     = 

OBJECT_NAME    = ELECTRON KICK STAGE R/B
OBJECT_ID      = 2025-252C
CENTER_NAME    = EARTH
REF_FRAME      = TEME
TIME_SYSTEM    = UTC
MEAN_ELEMENT_THEORY = SGP/SGP4

EPOCH          = 2025-11-23T20:12:00.764064
MEAN_MOTION    = 15.89960071
ECCENTRICITY   = .0142067
INCLINATION    = 41.9796
RA_OF_ASC_NODE = 167.1999
ARG_OF_PERICENTER = 155.5149
MEAN_ANOMALY   = 205.2542

EPHEMERIS_TYPE = 0
CLASSIFICATION_TYPE = U
NORAD_CAT_ID   = 66318
ELEMENT_SET_NO = 999
REV_AT_EPOCH   = 283
BSTAR          = .18157E-2
MEAN_MOTION_DOT = .1460392E-1
MEAN_MOTION_DDOT = .76493E-5

CCSDS_OMM_VERS = 2.0
CREATION_DATE  = 
ORIGINATOR     = 

OBJECT_NAME    = STARLINK-35442
OBJECT_ID      = 2025-253A
CENTER_NAME    = EARTH
REF_FRAME      = TEME
TIME_SYSTEM    = UTC
MEAN_ELEMENT_THEORY = SGP/SGP4

EPOCH          = 2025-11-24T04:00:01.998720
MEAN_MOTION    = 15.63661575
ECCENTRICITY   = .0001411
INCLINATION    = 43.0001
RA_OF_ASC_NODE = 93.5331
ARG_OF_PERICENTER = 280.4566
MEAN_ANOMALY   = 219.3506

EPHEMERIS_TYPE = 0
CLASSIFICATION_TYPE = U
NORAD_CAT_ID   = 66319
ELEMENT_SET_NO = 999
REV_AT_EPOCH   = 404
BSTAR          = -.2398E-1
MEAN_MOTION_DOT = -.201692E-1
MEAN_MOTION_DDOT = 0

CCSDS_OMM_VERS = 2.0
CREATION_DATE  = 
ORIGINATOR     = 

OBJECT_NAME    = STARLINK-34616
OBJECT_ID      = 2025-253B
CENTER_NAME    = EARTH
REF_FRAME      = TEME
TIME_SYSTEM    = UTC
MEAN_ELEMENT_THEORY = SGP/SGP4

EPOCH          = 2025-11-24T04:00:01.998720
MEAN_MOTION    = 15.63665638
ECCENTRICITY   = .0001343
INCLINATION    = 43.0001
RA_OF_ASC_NODE = 93.5279
ARG_OF_PERICENTER = 277.9347
MEAN_ANOMALY   = 223.7864

EPHEMERIS_TYPE = 0
CLASSIFICATION_TYPE = U
NORAD_CAT_ID   = 66320
ELEMENT_SET_NO = 999
REV_AT_EPOCH   = 414
BSTAR          = -.24019E-1
MEAN_MOTION_DOT = -.202007E-1
MEAN_MOTION_DDOT = 0

CCSDS_OMM_VERS = 2.0
CREATION_DATE  = 
ORIGINATOR     = 

OBJECT_NAME    = STARLINK-34615
OBJECT_ID      = 2025-253C
CENTER_NAME    = EARTH
REF_FRAME      = TEME
TIME_SYSTEM    = UTC
MEAN_ELEMENT_THEORY = SGP/SGP4

EPOCH          = 2025-11-24T04:00:01.998720
MEAN_MOTION    = 15.63662613
ECCENTRICITY   = .0001396
INCLINATION    = 42.9996
RA_OF_ASC_NODE = 93.5231
ARG_OF_PERICENTER = 281.4552
MEAN_ANOMALY   = 222.1845

EPHEMERIS_TYPE = 0
CLASSIFICATION_TYPE = U
NORAD_CAT_ID   = 66321
ELEMENT_SET_NO = 999
REV_AT_EPOCH   = 399
BSTAR          = -.23983E-1
MEAN_MOTION_DOT = -.2017188E-1
MEAN_MOTION_DDOT = 0

CCSDS_OMM_VERS = 2.0
CREATION_DATE  = 
ORIGINATOR     = 

OBJECT_NAME    = STARLINK-35292
OBJECT_ID      = 2025-253D
CENTER_NAME    = EARTH
REF_FRAME      = TEME
TIME_SYSTEM    = UTC
MEAN_ELEMENT_THEORY = SGP/SGP4

EPOCH          = 2025-11-23T06:00:02.000160
MEAN_MOTION    = 15.67648230
ECCENTRICITY   = .00017231
INCLINATION    = 42.9998
RA_OF_ASC_NODE = 98.9861
ARG_OF_PERICENTER = 274.1115
MEAN_ANOMALY   = 104.2767

EPHEMERIS_TYPE = 0
CLASSIFICATION_TYPE = U
NORAD_CAT_ID   = 66322
ELEMENT_SET_NO = 999
REV_AT_EPOCH   = 379
BSTAR          = -.19840576E-1
MEAN_MOTION_DOT = -.1968797E-1
MEAN_MOTION_DDOT = 0

CCSDS_OMM_VERS = 2.0
CREATION_DATE  = 
ORIGINATOR     = 

OBJECT_NAME    = STARLINK-35309
OBJECT_ID      = 2025-253E
CENTER_NAME    = EARTH
REF_FRAME      = TEME
TIME_SYSTEM    = UTC
MEAN_ELEMENT_THEORY = SGP/SGP4

EPOCH          = 2025-11-24T04:00:01.998720
MEAN_MOTION    = 15.63665079
ECCENTRICITY   = .0001378
INCLINATION    = 42.9998
RA_OF_ASC_NODE = 93.4900
ARG_OF_PERICENTER = 279.4240
MEAN_ANOMALY   = 237.6342

EPHEMERIS_TYPE = 0
CLASSIFICATION_TYPE = U
NORAD_CAT_ID   = 66323
ELEMENT_SET_NO = 999
REV_AT_EPOCH   = 394
BSTAR          = -.24027E-1
MEAN_MOTION_DOT = -.2020605E-1
MEAN_MOTION_DDOT = 0

CCSDS_OMM_VERS = 2.0
CREATION_DATE  = 
ORIGINATOR     = 

OBJECT_NAME    = STARLINK-35506
OBJECT_ID      = 2025-253F
CENTER_NAME    = EARTH
REF_FRAME      = TEME
TIME_SYSTEM    = UTC
MEAN_ELEMENT_THEORY = SGP/SGP4

EPOCH          = 2025-11-24T04:00:01.998720
MEAN_MOTION    = 15.63665002
ECCENTRICITY   = .0001281
INCLINATION    = 43.0000
RA_OF_ASC_NODE = 93.5085
ARG_OF_PERICENTER = 279.2555
MEAN_ANOMALY   = 230.1340

EPHEMERIS_TYPE = 0
CLASSIFICATION_TYPE = U
NORAD_CAT_ID   = 66324
ELEMENT_SET_NO = 999
REV_AT_EPOCH   = 404
BSTAR          = -.24002E-1
MEAN_MOTION_DOT = -.2018708E-1
MEAN_MOTION_DDOT = 0

CCSDS_OMM_VERS = 2.0
CREATION_DATE  = 
ORIGINATOR     = 

OBJECT_NAME    = STARLINK-35504
OBJECT_ID      = 2025-253G
CENTER_NAME    = EARTH
REF_FRAME      = TEME
TIME_SYSTEM    = UTC
MEAN_ELEMENT_THEORY = SGP/SGP4

EPOCH          = 2025-11-24T04:00:01.998720
MEAN_MOTION    = 15.63664454
ECCENTRICITY   = .0001337
INCLINATION    = 43.0001
RA_OF_ASC_NODE = 93.4994
ARG_OF_PERICENTER = 275.5138
MEAN_ANOMALY   = 237.7114

EPHEMERIS_TYPE = 0
CLASSIFICATION_TYPE = U
NORAD_CAT_ID   = 66325
ELEMENT_SET_NO = 999
REV_AT_EPOCH   = 394
BSTAR          = -.24018E-1
MEAN_MOTION_DOT = -.2019873E-1
MEAN_MOTION_DDOT = 0

CCSDS_OMM_VERS = 2.0
CREATION_DATE  = 
ORIGINATOR     = 

OBJECT_NAME    = STARLINK-35479
OBJECT_ID      = 2025-253H
CENTER_NAME    = EARTH
REF_FRAME      = TEME
TIME_SYSTEM    = UTC
MEAN_ELEMENT_THEORY = SGP/SGP4

EPOCH          = 2025-11-24T04:00:01.998720
MEAN_MOTION    = 15.63665883
ECCENTRICITY   = .000134
INCLINATION    = 42.9999
RA_OF_ASC_NODE = 93.4839
ARG_OF_PERICENTER = 273.4072
MEAN_ANOMALY   = 245.5683

EPHEMERIS_TYPE = 0
CLASSIFICATION_TYPE = U
NORAD_CAT_ID   = 66326
ELEMENT_SET_NO = 999
REV_AT_EPOCH   = 404
BSTAR          = -.24039E-1
MEAN_MOTION_DOT = -.2021567E-1
MEAN_MOTION_DDOT = 0

CCSDS_OMM_VERS = 2.0
CREATION_DATE  = 
ORIGINATOR     = 

OBJECT_NAME    = STARLINK-35507
OBJECT_ID      = 2025-253J
CENTER_NAME    = EARTH
REF_FRAME      = TEME
TIME_SYSTEM    = UTC
MEAN_ELEMENT_THEORY = SGP/SGP4

EPOCH          = 2025-11-24T04:00:01.998720
MEAN_MOTION    = 15.63664129
ECCENTRICITY   = .0001264
INCLINATION    = 42.9998
RA_OF_ASC_NODE = 93.5137
ARG_OF_PERICENTER = 277.3520
MEAN_ANOMALY   = 230.1205

EPHEMERIS_TYPE = 0
CLASSIFICATION_TYPE = U
NORAD_CAT_ID   = 66327
ELEMENT_SET_NO = 999
REV_AT_EPOCH   = 404
BSTAR          = -.23977E-1
MEAN_MOTION_DOT = -.2016798E-1
MEAN_MOTION_DDOT = 0

CCSDS_OMM_VERS = 2.0
CREATION_DATE  = 
ORIGINATOR     = 

OBJECT_NAME    = STARLINK-35460
OBJECT_ID      = 2025-253K
CENTER_NAME    = EARTH
REF_FRAME      = TEME
TIME_SYSTEM    = UTC
MEAN_ELEMENT_THEORY = SGP/SGP4

EPOCH          = 2025-11-24T04:00:01.998720
MEAN_MOTION    = 15.63663001
ECCENTRICITY   = .0001327
INCLINATION    = 42.9996
RA_OF_ASC_NODE = 93.4685
ARG_OF_PERICENTER = 276.4705
MEAN_ANOMALY   = 248.2557

EPHEMERIS_TYPE = 0
CLASSIFICATION_TYPE = U
NORAD_CAT_ID   = 66328
ELEMENT_SET_NO = 999
REV_AT_EPOCH   = 404
BSTAR          = -.23974E-1
MEAN_MOTION_DOT = -.2016554E-1
MEAN_MOTION_DDOT = 0

CCSDS_OMM_VERS = 2.0
CREATION_DATE  = 
ORIGINATOR     = 

OBJECT_NAME    = STARLINK-35505
OBJECT_ID      = 2025-253L
CENTER_NAME    = EARTH
REF_FRAME      = TEME
TIME_SYSTEM    = UTC
MEAN_ELEMENT_THEORY = SGP/SGP4

EPOCH          = 2025-11-24T04:00:01.998720
MEAN_MOTION    = 15.63660450
ECCENTRICITY   = .0001357
INCLINATION    = 43.0000
RA_OF_ASC_NODE = 93.5191
ARG_OF_PERICENTER = 277.3924
MEAN_ANOMALY   = 228.1651

EPHEMERIS_TYPE = 0
CLASSIFICATION_TYPE = U
NORAD_CAT_ID   = 66329
ELEMENT_SET_NO = 999
REV_AT_EPOCH   = 394
BSTAR          = -.23938E-1
MEAN_MOTION_DOT = -.2013718E-1
MEAN_MOTION_DDOT = 0

CCSDS_OMM_VERS = 2.0
CREATION_DATE  = 
ORIGINATOR     = 

OBJECT_NAME    = STARLINK-35512
OBJECT_ID      = 2025-253M
CENTER_NAME    = EARTH
REF_FRAME      = TEME
TIME_SYSTEM    = UTC
MEAN_ELEMENT_THEORY = SGP/SGP4

EPOCH          = 2025-11-24T04:00:01.998720
MEAN_MOTION    = 15.63662355
ECCENTRICITY   = .0001404
INCLINATION    = 43.0000
RA_OF_ASC_NODE = 93.4941
ARG_OF_PERICENTER = 279.7181
MEAN_ANOMALY   = 235.4231

EPHEMERIS_TYPE = 0
CLASSIFICATION_TYPE = U
NORAD_CAT_ID   = 66330
ELEMENT_SET_NO = 999
REV_AT_EPOCH   = 394
BSTAR          = -.23967E-1
MEAN_MOTION_DOT = -.2016052E-1
MEAN_MOTION_DDOT = 0

CCSDS_OMM_VERS = 2.0
CREATION_DATE  = 
ORIGINATOR     = 

OBJECT_NAME    = STARLINK-35257
OBJECT_ID      = 2025-253N
CENTER_NAME    = EARTH
REF_FRAME      = TEME
TIME_SYSTEM    = UTC
MEAN_ELEMENT_THEORY = SGP/SGP4

EPOCH          = 2025-11-24T04:00:01.998720
MEAN_MOTION    = 15.63657114
ECCENTRICITY   = .000124
INCLINATION    = 43.0002
RA_OF_ASC_NODE = 93.4549
ARG_OF_PERICENTER = 276.5553
MEAN_ANOMALY   = 253.9244

EPHEMERIS_TYPE = 0
CLASSIFICATION_TYPE = U
NORAD_CAT_ID   = 66331
ELEMENT_SET_NO = 999
REV_AT_EPOCH   = 367
BSTAR          = -.23866E-1
MEAN_MOTION_DOT = -.2008077E-1
MEAN_MOTION_DDOT = 0

CCSDS_OMM_VERS = 2.0
CREATION_DATE  = 
ORIGINATOR     = 

OBJECT_NAME    = STARLINK-35322
OBJECT_ID      = 2025-253P
CENTER_NAME    = EARTH
REF_FRAME      = TEME
TIME_SYSTEM    = UTC
MEAN_ELEMENT_THEORY = SGP/SGP4

EPOCH          = 2025-11-24T04:00:01.998720
MEAN_MOTION    = 15.63661945
ECCENTRICITY   = .0001373
INCLINATION    = 43.0000
RA_OF_ASC_NODE = 93.4789
ARG_OF_PERICENTER = 278.2485
MEAN_ANOMALY   = 242.6429

EPHEMERIS_TYPE = 0
CLASSIFICATION_TYPE = U
NORAD_CAT_ID   = 66332
ELEMENT_SET_NO = 999
REV_AT_EPOCH   = 394
BSTAR          = -.2395E-1
MEAN_MOTION_DOT = -.2014692E-1
MEAN_MOTION_DDOT = 0

